OBJECT_NAME,OBJECT_ID,EPOCH,MEAN_MOTION,ECCENTRICITY,INCLINATION,RA_OF_ASC_NODE,ARG_OF_PERICENTER,MEAN_ANOMALY,EPHEMERIS_TYPE,CLASSIFICATION_TYPE,NORAD_CAT_ID,ELEMENT_SET_NO,REV_AT_EPOCH,BSTAR,MEAN_MOTION_DOT,MEAN_MOTION_DDOT
BEIDOU-3S IGSO-1S (C31),2015-019A,2026-06-15T20:12:21.707424,1.00250248,.00391284,49.1979,295.4779,191.2662,172.0144,0,U,40549,999,4106,0,-.176E-5,0
GPS BIIF-10 (PRN 08),2015-033A,2026-06-15T17:24:22.048416,2.00556275,.01150594,53.9835,267.1468,30.2204,330.4754,0,U,40730,999,7996,0,-.16E-6,0
BEIDOU-3S M2S (C58),2015-037A,2026-06-16T05:59:11.577120,1.86232022,.00083792,54.8724,302.0792,259.1051,100.7870,0,U,40748,999,7410,0,-.7E-6,0
BEIDOU-3S M1S (C57),2015-037B,2026-06-15T09:11:46.758912,1.86254745,.00034588,54.8691,302.0961,61.7517,298.2671,0,U,40749,999,7409,0,-.69E-6,0
GSAT0205 (GALILEO 9),2015-045A,2026-05-24T07:17:44.873376,1.67409242,.00064058,54.9357,222.4171,263.0112,96.9692,0,U,40889,999,6656,0,-.14E-6,0
GSAT0206 (GALILEO 10),2015-045B,2026-06-15T16:44:29.456160,1.70473766,.00017913,54.9450,221.6455,333.6365,26.4548,0,U,40890,999,6701,0,.52E-6,0
BEIDOU-3S IGSO-2S (C56),2015-053A,2026-06-15T19:49:38.196192,1.00258936,.00656763,49.2239,258.7990,192.1192,205.8375,0,U,40938,999,3934,0,-.128E-5,0
GPS BIIF-11 (PRN 10),2015-062A,2026-06-15T18:45:14.686272,2.00566865,.01118785,56.9584,30.8653,231.0655,127.9888,0,U,41019,999,7780,0,-.67E-6,0
GSAT-15 (GAGAN/PRN 139),2015-065A,2026-06-15T08:22:24.202272,1.00270843,.00040581,0.0749,265.5559,161.7787,55.3896,0,U,41028,999,3878,0,-.254E-5,0
GSAT0209 (GALILEO 12),2015-079A,2026-06-15T06:41:44.850912,1.70473583,.00053167,55.8263,101.3143,342.9908,16.9497,0,U,41174,999,6474,0,-.13E-6,0
GSAT0208 (GALILEO 11),2015-079B,2026-06-14T07:49:36.507936,1.70473576,.00048621,55.8243,101.3373,343.1705,16.7693,0,U,41175,999,6514,0,-.1E-6,0
IRNSS-1E,2016-003A,2026-06-14T15:36:21.763296,1.00279169,.00235172,33.2222,59.7855,150.0031,38.8029,0,U,41241,999,3805,0,-.32E-5,0
GPS BIIF-12 (PRN 32),2016-007A,2026-06-10T21:16:03.932832,2.00551966,.00960515,55.5202,89.7095,247.3753,111.5952,0,U,41328,999,7571,0,-.12E-6,0
COSMOS 2514 (751),2016-008A,2026-06-15T21:03:25.494624,2.13102508,.0011236,65.0225,313.0514,197.9277,162.0167,0,U,41330,999,8059,0,-.54E-6,0
BEIDOU-2 IGSO-6 (C13),2016-021A,2026-06-16T02:58:21.700128,1.00259474,.00571844,60.2243,38.0497,231.4868,132.3999,0,U,41434,999,3747,0,-.15E-5,0
IRNSS-1G,2016-027A,2026-06-15T18:48:27.402336,1.00266762,.00075442,5.1946,97.5053,354.7633,223.4187,0,U,41469,999,3716,0,-.337E-5,0
GSAT0211 (GALILEO 14),2016-030A,2026-06-14T10:48:10.446624,1.70473900,.0002887,55.0959,221.7703,323.8922,36.1904,0,U,41549,999,6262,0,.59E-6,0
GSAT0210 (GALILEO 13),2016-030B,2026-06-14T16:58:37.998336,1.70473923,.00046489,55.0955,221.7612,244.9793,115.0745,0,U,41550,999,6262,0,.58E-6,0
BEIDOU-2 G7 (C03),2016-037A,2026-06-16T01:33:46.685088,1.00273948,.00065179,1.7177,69.3744,355.9793,332.8617,0,U,41586,999,687,0,-.354E-5,0
EUTELSAT 117 WEST B (WAAS/PRN 131),2016-038B,2026-06-15T00:23:38.718240,1.00269365,.00004473,0.0044,166.0114,257.2085,88.9985,0,U,41589,999,3664,0,-.6E-7,0
GSAT0207 (GALILEO 15),2016-069A,2026-06-15T13:44:00.222720,1.70473545,.000529,55.4979,101.1309,329.9207,30.0086,0,U,41859,999,5937,0,-.14E-6,0
GSAT0212 (GALILEO 16),2016-069B,2026-06-14T06:03:34.358400,1.70473713,.00046425,55.4947,101.1626,358.3825,1.5720,0,U,41860,999,5960,0,-.11E-6,0
GSAT0213 (GALILEO 17),2016-069C,2026-06-15T04:57:04.571424,1.70474116,.00049587,55.4975,101.1440,312.6321,47.2844,0,U,41861,999,5948,0,-.13E-6,0
GSAT0214 (GALILEO 18),2016-069D,2026-06-14T04:18:14.499936,1.70473798,.0004255,55.4956,101.1651,319.5735,40.3509,0,U,41862,999,5959,0,-.1E-6,0
SES-15 (WAAS/PRN 133),2017-026A,2026-06-16T07:11:01.609152,1.00267992,.00003981,0.0192,337.0750,53.9818,212.0868,0,U,42709,999,742,0,.6E-6,0
QZS-2 (QZSS/PRN 194),2017-028A,2026-06-15T12:28:38.731008,1.00284423,.07605138,39.4302,243.1796,269.2356,80.1810,0,U,42738,999,760,0,-.144E-5,0
QZS-3 (QZSS/PRN 199),2017-048A,2026-06-16T05:03:40.879584,1.00276392,.00018318,0.0672,171.8370,269.9962,25.5179,0,U,42917,999,3225,0,-.348E-5,0
COSMOS 2522 (752),2017-055A,2026-06-16T04:25:35.991840,2.13101765,.00108115,64.0787,191.9186,240.4183,119.5344,0,U,42939,999,6795,0,.77E-6,0
QZS-4 (QZSS/PRN 195),2017-062A,2026-06-15T08:32:30.732000,1.00250711,.07452236,40.1089,343.5053,271.7370,273.6485,0,U,42965,999,3178,0,-.342E-5,0
BEIDOU-3 M1 (C19),2017-069A,2026-06-16T01:25:09.439392,1.86230800,.00104164,56.6914,63.1220,325.8468,34.1241,0,U,43001,999,5858,0,-.5E-6,0
BEIDOU-3 M2 (C20),2017-069B,2026-06-15T23:56:56.499360,1.86230738,.0009202,56.6897,63.1605,351.0266,8.9945,0,U,43002,999,5857,0,-.5E-6,0
